CCSDS_OMM_VERS = 2.0
CREATION_DATE  = 
ORIGINATOR     = 

OBJECT_NAME    = STARLINK-36746
OBJECT_ID      = 2026-026N
CENTER_NAME    = EARTH
REF_FRAME      = TEME
TIME_SYSTEM    = UTC
MEAN_ELEMENT_THEORY = SGP/SGP4

EPOCH          = 2026-03-03T14:00:03.000384
MEAN_MOTION    = 15.54291404
ECCENTRICITY   = .00013654
INCLINATION    = 97.2843
RA_OF_ASC_NODE = 116.8654
ARG_OF_PERICENTER = 92.5039
MEAN_ANOMALY   = 252.2323

EPHEMERIS_TYPE = 0
CLASSIFICATION_TYPE = U
NORAD_CAT_ID   = 67733
ELEMENT_SET_NO = 999
REV_AT_EPOCH   = 433
BSTAR          = -.31345479E-1
MEAN_MOTION_DOT = -.1816118E-1
MEAN_MOTION_DDOT = 0

CCSDS_OMM_VERS = 2.0
CREATION_DATE  = 
ORIGINATOR     = 

OBJECT_NAME    = STARLINK-36749
OBJECT_ID      = 2026-026P
CENTER_NAME    = EARTH
REF_FRAME      = TEME
TIME_SYSTEM    = UTC
MEAN_ELEMENT_THEORY = SGP/SGP4

EPOCH          = 2026-03-03T14:00:03.000384
MEAN_MOTION    = 15.68203436
ECCENTRICITY   = .00017546
INCLINATION    = 97.2838
RA_OF_ASC_NODE = 116.9637
ARG_OF_PERICENTER = 88.4464
MEAN_ANOMALY   = 134.9590

EPHEMERIS_TYPE = 0
CLASSIFICATION_TYPE = U
NORAD_CAT_ID   = 67734
ELEMENT_SET_NO = 999
REV_AT_EPOCH   = 433
BSTAR          = -.19141971E-1
MEAN_MOTION_DOT = -.1892677E-1
MEAN_MOTION_DDOT = 0

CCSDS_OMM_VERS = 2.0
CREATION_DATE  = 
ORIGINATOR     = 

OBJECT_NAME    = STARLINK-36691
OBJECT_ID      = 2026-026Q
CENTER_NAME    = EARTH
REF_FRAME      = TEME
TIME_SYSTEM    = UTC
MEAN_ELEMENT_THEORY = SGP/SGP4

EPOCH          = 2026-03-03T14:00:03.000384
MEAN_MOTION    = 15.75303678
ECCENTRICITY   = .00014443
INCLINATION    = 97.2842
RA_OF_ASC_NODE = 116.9916
ARG_OF_PERICENTER = 90.9261
MEAN_ANOMALY   = 206.8323

EPHEMERIS_TYPE = 0
CLASSIFICATION_TYPE = U
NORAD_CAT_ID   = 67735
ELEMENT_SET_NO = 999
REV_AT_EPOCH   = 446
BSTAR          = -.14192016E-1
MEAN_MOTION_DOT = -.1859458E-1
MEAN_MOTION_DDOT = 0

CCSDS_OMM_VERS = 2.0
CREATION_DATE  = 
ORIGINATOR     = 

OBJECT_NAME    = STARLINK-36317
OBJECT_ID      = 2026-026R
CENTER_NAME    = EARTH
REF_FRAME      = TEME
TIME_SYSTEM    = UTC
MEAN_ELEMENT_THEORY = SGP/SGP4

EPOCH          = 2026-03-03T14:00:03.000384
MEAN_MOTION    = 15.75052606
ECCENTRICITY   = .00014686
INCLINATION    = 97.2841
RA_OF_ASC_NODE = 116.9868
ARG_OF_PERICENTER = 87.5132
MEAN_ANOMALY   = 199.5426

EPHEMERIS_TYPE = 0
CLASSIFICATION_TYPE = U
NORAD_CAT_ID   = 67736
ELEMENT_SET_NO = 999
REV_AT_EPOCH   = 433
BSTAR          = -.14371084E-1
MEAN_MOTION_DOT = -.1861969E-1
MEAN_MOTION_DDOT = 0

CCSDS_OMM_VERS = 2.0
CREATION_DATE  = 
ORIGINATOR     = 

OBJECT_NAME    = STARLINK-36330
OBJECT_ID      = 2026-026S
CENTER_NAME    = EARTH
REF_FRAME      = TEME
TIME_SYSTEM    = UTC
MEAN_ELEMENT_THEORY = SGP/SGP4

EPOCH          = 2026-03-03T14:00:03.000384
MEAN_MOTION    = 15.75404894
ECCENTRICITY   = .00014756
INCLINATION    = 97.2841
RA_OF_ASC_NODE = 116.9937
ARG_OF_PERICENTER = 93.7811
MEAN_ANOMALY   = 210.6668

EPHEMERIS_TYPE = 0
CLASSIFICATION_TYPE = U
NORAD_CAT_ID   = 67737
ELEMENT_SET_NO = 999
REV_AT_EPOCH   = 433
BSTAR          = -.14142245E-1
MEAN_MOTION_DOT = -.1860992E-1
MEAN_MOTION_DDOT = 0

CCSDS_OMM_VERS = 2.0
CREATION_DATE  = 
ORIGINATOR     = 

OBJECT_NAME    = STARLINK-36327
OBJECT_ID      = 2026-026T
CENTER_NAME    = EARTH
REF_FRAME      = TEME
TIME_SYSTEM    = UTC
MEAN_ELEMENT_THEORY = SGP/SGP4

EPOCH          = 2026-03-03T14:00:03.000384
MEAN_MOTION    = 15.75697546
ECCENTRICITY   = .00013386
INCLINATION    = 97.2843
RA_OF_ASC_NODE = 116.9979
ARG_OF_PERICENTER = 93.8823
MEAN_ANOMALY   = 219.8580

EPHEMERIS_TYPE = 0
CLASSIFICATION_TYPE = U
NORAD_CAT_ID   = 67738
ELEMENT_SET_NO = 999
REV_AT_EPOCH   = 433
BSTAR          = -.13969376E-1
MEAN_MOTION_DOT = -.1861798E-1
MEAN_MOTION_DDOT = 0

CCSDS_OMM_VERS = 2.0
CREATION_DATE  = 
ORIGINATOR     = 

OBJECT_NAME    = STARLINK-36329
OBJECT_ID      = 2026-026U
CENTER_NAME    = EARTH
REF_FRAME      = TEME
TIME_SYSTEM    = UTC
MEAN_ELEMENT_THEORY = SGP/SGP4

EPOCH          = 2026-03-03T14:00:03.000384
MEAN_MOTION    = 15.76730715
ECCENTRICITY   = .00013967
INCLINATION    = 97.2856
RA_OF_ASC_NODE = 117.0151
ARG_OF_PERICENTER = 81.7534
MEAN_ANOMALY   = 284.1771

EPHEMERIS_TYPE = 0
CLASSIFICATION_TYPE = U
NORAD_CAT_ID   = 67739
ELEMENT_SET_NO = 999
REV_AT_EPOCH   = 433
BSTAR          = -.13361752E-1
MEAN_MOTION_DOT = -.1863878E-1
MEAN_MOTION_DDOT = 0

CCSDS_OMM_VERS = 2.0
CREATION_DATE  = 
ORIGINATOR     = 

OBJECT_NAME    = STARLINK-36737
OBJECT_ID      = 2026-026V
CENTER_NAME    = EARTH
REF_FRAME      = TEME
TIME_SYSTEM    = UTC
MEAN_ELEMENT_THEORY = SGP/SGP4

EPOCH          = 2026-03-03T14:00:03.000384
MEAN_MOTION    = 15.75848835
ECCENTRICITY   = .00013678
INCLINATION    = 97.2845
RA_OF_ASC_NODE = 117.0003
ARG_OF_PERICENTER = 90.3716
MEAN_ANOMALY   = 232.7881

EPHEMERIS_TYPE = 0
CLASSIFICATION_TYPE = U
NORAD_CAT_ID   = 67740
ELEMENT_SET_NO = 999
REV_AT_EPOCH   = 433
BSTAR          = -.13855232E-1
MEAN_MOTION_DOT = -.1859331E-1
MEAN_MOTION_DDOT = 0

CCSDS_OMM_VERS = 2.0
CREATION_DATE  = 
ORIGINATOR     = 

OBJECT_NAME    = STARLINK-36740
OBJECT_ID      = 2026-026W
CENTER_NAME    = EARTH
REF_FRAME      = TEME
TIME_SYSTEM    = UTC
MEAN_ELEMENT_THEORY = SGP/SGP4

EPOCH          = 2026-03-03T14:00:03.000384
MEAN_MOTION    = 15.71583220
ECCENTRICITY   = .00013894
INCLINATION    = 97.2844
RA_OF_ASC_NODE = 117.0039
ARG_OF_PERICENTER = 92.4260
MEAN_ANOMALY   = 233.9149

EPHEMERIS_TYPE = 0
CLASSIFICATION_TYPE = U
NORAD_CAT_ID   = 67741
ELEMENT_SET_NO = 999
REV_AT_EPOCH   = 433
BSTAR          = -.16593373E-1
MEAN_MOTION_DOT = -.1852731E-1
MEAN_MOTION_DDOT = 0

CCSDS_OMM_VERS = 2.0
CREATION_DATE  = 
ORIGINATOR     = 

OBJECT_NAME    = STARLINK-36693
OBJECT_ID      = 2026-026X
CENTER_NAME    = EARTH
REF_FRAME      = TEME
TIME_SYSTEM    = UTC
MEAN_ELEMENT_THEORY = SGP/SGP4

EPOCH          = 2026-03-03T14:00:03.000384
MEAN_MOTION    = 15.72252033
ECCENTRICITY   = .00014094
INCLINATION    = 97.2842
RA_OF_ASC_NODE = 116.9972
ARG_OF_PERICENTER = 95.2703
MEAN_ANOMALY   = 213.8145

EPHEMERIS_TYPE = 0
CLASSIFICATION_TYPE = U
NORAD_CAT_ID   = 67742
ELEMENT_SET_NO = 999
REV_AT_EPOCH   = 446
BSTAR          = -.16134964E-1
MEAN_MOTION_DOT = -.185344E-1
MEAN_MOTION_DDOT = 0

CCSDS_OMM_VERS = 2.0
CREATION_DATE  = 
ORIGINATOR     = 

OBJECT_NAME    = STARLINK-36717
OBJECT_ID      = 2026-026Y
CENTER_NAME    = EARTH
REF_FRAME      = TEME
TIME_SYSTEM    = UTC
MEAN_ELEMENT_THEORY = SGP/SGP4

EPOCH          = 2026-03-03T14:00:03.000384
MEAN_MOTION    = 15.74361381
ECCENTRICITY   = .00013134
INCLINATION    = 97.2846
RA_OF_ASC_NODE = 117.0070
ARG_OF_PERICENTER = 86.2301
MEAN_ANOMALY   = 252.0294

EPHEMERIS_TYPE = 0
CLASSIFICATION_TYPE = U
NORAD_CAT_ID   = 67743
ELEMENT_SET_NO = 999
REV_AT_EPOCH   = 446
BSTAR          = -.14777356E-1
MEAN_MOTION_DOT = -.185814E-1
MEAN_MOTION_DDOT = 0

CCSDS_OMM_VERS = 2.0
CREATION_DATE  = 
ORIGINATOR     = 

OBJECT_NAME    = STARLINK-36692
OBJECT_ID      = 2026-026Z
CENTER_NAME    = EARTH
REF_FRAME      = TEME
TIME_SYSTEM    = UTC
MEAN_ELEMENT_THEORY = SGP/SGP4

EPOCH          = 2026-03-03T14:00:03.000384
MEAN_MOTION    = 15.73118261
ECCENTRICITY   = .00013449
INCLINATION    = 97.2844
RA_OF_ASC_NODE = 117.0021
ARG_OF_PERICENTER = 87.6643
MEAN_ANOMALY   = 235.7861

EPHEMERIS_TYPE = 0
CLASSIFICATION_TYPE = U
NORAD_CAT_ID   = 67744
ELEMENT_SET_NO = 999
REV_AT_EPOCH   = 433
BSTAR          = -.15569382E-1
MEAN_MOTION_DOT = -.1855669E-1
MEAN_MOTION_DDOT = 0

