STARLINK-36746          
1 67733U 26026N   26062.58336806 -.01816118  00000+0 -31345-1 0  9991
2 67733  97.2843 116.8654 0001365  92.5039 252.2323 15.54291404  4339
STARLINK-36749          
1 67734U 26026P   26062.58336806 -.01892677  00000+0 -19142-1 0  9997
2 67734  97.2838 116.9637 0001754  88.4464 134.9590 15.68203436  4339
STARLINK-36691          
1 67735U 26026Q   26062.58336806 -.01859458  00000+0 -14192-1 0  9998
2 67735  97.2842 116.9916 0001444  90.9261 206.8323 15.75303678  4468
STARLINK-36317          
1 67736U 26026R   26062.58336806 -.01861969  00000+0 -14371-1 0  9998
2 67736  97.2841 116.9868 0001468  87.5132 199.5426 15.75052606  4339
STARLINK-36330          
1 67737U 26026S   26062.58336806 -.01860992  00000+0 -14142-1 0  9990
2 67737  97.2841 116.9937 0001475  93.7811 210.6668 15.75404894  4331
STARLINK-36327          
1 67738U 26026T   26062.58336806 -.01861798  00000+0 -13969-1 0  9992
2 67738  97.2843 116.9979 0001338  93.8823 219.8580 15.75697546  4334
STARLINK-36329          
1 67739U 26026U   26062.58336806 -.01863878  00000+0 -13362-1 0  9991
2 67739  97.2856 117.0151 0001396  81.7534 284.1771 15.76730715  4336
STARLINK-36737          
1 67740U 26026V   26062.58336806 -.01859331  00000+0 -13855-1 0  9999
2 67740  97.2845 117.0003 0001367  90.3716 232.7881 15.75848835  4331
STARLINK-36740          
1 67741U 26026W   26062.58336806 -.01852731  00000+0 -16593-1 0  9999
2 67741  97.2844 117.0039 0001389  92.4260 233.9149 15.71583220  4331
STARLINK-36693          
1 67742U 26026X   26062.58336806 -.01853440  00000+0 -16135-1 0  9990
2 67742  97.2842 116.9972 0001409  95.2703 213.8145 15.72252033  4463
STARLINK-36717          
1 67743U 26026Y   26062.58336806 -.01858140  00000+0 -14777-1 0  9993
2 67743  97.2846 117.0070 0001313  86.2301 252.0294 15.74361381  4466
STARLINK-36692          
1 67744U 26026Z   26062.58336806 -.01855669  00000+0 -15569-1 0  9997
2 67744  97.2844 117.0021 0001344  87.6643 235.7861 15.73118261  4339
